NORAD_CAT_ID,OBJECT_NAME,OBJECT_TYPE,EPOCH,MEAN_MOTION,ECCENTRICITY,INCLINATION,RA_OF_ASC_NODE,ARG_OF_PERICENTER,MEAN_ANOMALY,BSTAR,MEAN_MOTION_DOT,MEAN_MOTION_DDOT,TLE_LINE0,TLE_LINE1,TLE_LINE2,SEMIMAJOR_AXIS,PERIOD,APOGEE,PERIGEE,DECAYED
52560.0,STARLINK-3956,PAYLOAD,2024-03-19 11:40:23,15.08851557,0.0001718,53.2163,112.2368,79.4447,280.6739,0.0002085,3.033e-05,0.0,0 STARLINK-3956,1 52560U 22051AD  24079.48638155  .00003033  00000-0  20850-3 0  9997,2 52560  53.2163 112.2368 0001718  79.4447 280.6739 15.08851557102929,6917.845,95.437,540.899,538.522,0.0
52560.0,STARLINK-3956,PAYLOAD,2024-03-20 08:20:27,15.08789343,0.0001903,53.2165,108.3645,91.7217,268.3993,0.0016546,0.00026107,0.0,0 STARLINK-3956,1 52560U 22051AD  24080.34753674  .00026107  00000-0  16546-2 0  9991,2 52560  53.2165 108.3645 0001903  91.7217 268.3993 15.08789343103056,6918.035,95.441,541.217,538.584,0.0
52560.0,STARLINK-3956,PAYLOAD,2024-03-20 11:31:11,15.08823193,0.0001727,53.2167,107.7691,90.0408,270.0782,0.00061305,9.478e-05,0.0,0 STARLINK-3956,1 52560U 22051AD  24080.47999760  .00009478  00000-0  61305-3 0  9999,2 52560  53.2167 107.7691 0001727  90.0408 270.0782 15.08823193103003,6917.932,95.439,540.991,538.602,0.0
52560.0,STARLINK-3956,PAYLOAD,2024-03-21 05:00:25,15.0883497,0.0001837,53.2174,104.4967,106.1628,253.9567,2.1405e-06,-2.54e-06,0.0,0 STARLINK-3956,1 52560U 22051AD  24081.20862968 -.00000254  00000-0  21405-5 0  9993,2 52560  53.2174 104.4967 0001837 106.1628 253.9567 15.08834970103181,6917.896,95.438,541.032,538.49,0.0
52560.0,STARLINK-3956,PAYLOAD,2024-03-21 11:21:58,15.08834889,0.0001705,53.2174,103.3096,93.2524,266.8663,-2.8235e-05,-7.37e-06,0.0,0 STARLINK-3956,1 52560U 22051AD  24081.47359371 -.00000737  00000-0 -28235-4 0  9995,2 52560  53.2174 103.3096 0001705  93.2524 266.8663 15.08834889103153,6917.896,95.438,540.941,538.582,0.0
52560.0,STARLINK-3956,PAYLOAD,2024-03-22 06:26:35,15.08841505,0.0001533,53.217,99.7453,90.8074,269.3094,6.9859e-05,8.24e-06,0.0,0 STARLINK-3956,1 52560U 22051AD  24082.26846901  .00000824  00000-0  69859-4 0  9995,2 52560  53.2170  99.7453 0001533  90.8074 269.3094 15.08841505103346,6917.876,95.437,540.801,538.68,0.0
52560.0,STARLINK-3956,PAYLOAD,2024-03-23 04:42:00,15.08834154,0.000153,53.2174,95.5821,91.0744,269.0424,6.9132e-05,8.12e-06,0.0,0 STARLINK-3956,1 52560U 22051AD  24083.19583810  .00000812  00000-0  69132-4 0  9996,2 52560  53.2174  95.5821 0001530  91.0744 269.0424 15.08834154103488,6917.898,95.438,540.822,538.705,0.0
52560.0,STARLINK-3956,PAYLOAD,2024-03-23 17:25:05,15.08840694,0.0001611,53.2184,93.2036,92.9657,267.1519,8.6433e-05,1.088e-05,0.0,0 STARLINK-3956,1 52560U 22051AD  24083.72575447  .00001088  00000-0  86433-4 0  9991,2 52560  53.2184  93.2036 0001611  92.9657 267.1519 15.08840694103496,6917.878,95.438,540.858,538.629,0.0
52560.0,STARLINK-3956,PAYLOAD,2024-03-24 04:32:45,15.08863138,0.000231,53.2191,91.1216,114.035,246.0884,0.00026314,3.905e-05,0.0,0 STARLINK-3956,1 52560U 22051AD  24084.18941477  .00003905  00000-0  26314-3 0  9993,2 52560  53.2191  91.1216 0002310 114.0350 246.0884 15.08863138103639,6917.81,95.436,541.273,538.077,0.0
52560.0,STARLINK-3956,PAYLOAD,2024-03-24 09:18:54,15.08871635,0.0001755,53.2186,90.2324,101.886,258.2329,0.00031339,4.707e-05,0.0,0 STARLINK-3956,1 52560U 22051AD  24084.38812617  .00004707  00000-0  31339-3 0  9992,2 52560  53.2186  90.2324 0001755 101.8860 258.2329 15.08871635103668,6917.784,95.436,540.863,538.435,0.0
52560.0,STARLINK-3956,PAYLOAD,2024-03-24 17:15:51,15.08847794,0.0001474,53.2182,88.7442,89.1429,270.9732,0.00015418,2.167e-05,0.0,0 STARLINK-3956,1 52560U 22051AD  24084.71934404  .00002167  00000-0  15418-3 0  9996,2 52560  53.2182  88.7442 0001474  89.1429 270.9732 15.08847794103718,6917.857,95.437,540.741,538.702,0.0
52560.0,STARLINK-3956,PAYLOAD,2024-03-25 05:58:59,15.08812963,0.0001433,53.217,86.364,88.7485,271.3672,-0.00015017,-2.675e-05,0.0,0 STARLINK-3956,1 52560U 22051AD  24085.24929877 -.00002675  00000-0 -15017-3 0  9994,2 52560  53.2170  86.3640 0001433  88.7485 271.3672 15.08812963103797,6917.963,95.439,540.819,538.837,0.0
52560.0,STARLINK-3956,PAYLOAD,2024-03-25 09:09:44,15.08814253,0.0001726,53.2178,85.7704,89.4984,270.6206,-0.00029857,-5.033e-05,0.0,0 STARLINK-3956,1 52560U 22051AD  24085.38176886 -.00005033  00000-0 -29857-3 0  9991,2 52560  53.2178  85.7704 0001726  89.4984 270.6206 15.08814253103818,6917.959,95.439,541.018,538.63,0.0
52560.0,STARLINK-3956,PAYLOAD,2024-03-25 17:06:40,15.08825696,0.0001564,53.2174,84.283,87.1451,272.972,-9.5969e-05,-1.814e-05,0.0,0 STARLINK-3956,1 52560U 22051AD  24085.71296738 -.00001814  00000-0 -95969-4 0  9998,2 52560  53.2174  84.2830 0001564  87.1451 272.9720 15.08825696103866,6917.924,95.438,540.871,538.707,0.0
52560.0,STARLINK-3956,PAYLOAD,2024-03-26 05:49:45,15.08839816,0.0001462,53.2156,81.9043,87.0992,273.0168,0.00015543,2.187e-05,0.0,0 STARLINK-3956,1 52560U 22051AD  24086.24288458  .00002187  00000-0  15543-3 0  9998,2 52560  53.2156  81.9043 0001462  87.0992 273.0168 15.08839816103948,6917.881,95.438,540.757,538.735,0.0
52560.0,STARLINK-3956,PAYLOAD,2024-03-26 09:00:32,15.08845725,0.0001384,53.2154,81.3092,82.6507,277.4643,0.0013833,0.00021799,0.0,0 STARLINK-3956,1 52560U 22051AD  24086.37537133  .00021799  00000-0  13833-2 0  9998,2 52560  53.2154  81.3092 0001384  82.6507 277.4643 15.08845725103896,6917.863,95.437,540.685,538.77,0.0
52560.0,STARLINK-3956,PAYLOAD,2024-03-26 16:57:27,15.08853068,0.0001393,53.2154,79.8224,83.6798,276.4352,0.001111,0.00017444,0.0,0 STARLINK-3956,1 52560U 22051AD  24086.70656979  .00017444  00000-0  11110-2 0  9993,2 52560  53.2154  79.8224 0001393  83.6798 276.4352 15.08853068103949,6917.84,95.437,540.669,538.742,0.0
52560.0,STARLINK-3956,PAYLOAD,2024-03-27 05:40:31,15.08874144,0.0001355,53.2155,77.4428,85.4677,274.647,0.0011668,0.00018348,0.0,0 STARLINK-3956,1 52560U 22051AD  24087.23648030  .00018348  00000-0  11668-2 0  9993,2 52560  53.2155  77.4428 0001355  85.4677 274.6470 15.08874144104090,6917.776,95.435,540.578,538.704,0.0
52560.0,STARLINK-3956,PAYLOAD,2024-03-27 08:51:17,15.08881105,0.0001413,53.2156,76.8489,82.8888,277.2265,0.0014483,0.00022863,0.0,0 STARLINK-3956,1 52560U 22051AD  24087.36895714  .00022863  00000-0  14483-2 0  9995,2 52560  53.2156  76.8489 0001413  82.8888 277.2265 15.08881105104042,6917.755,95.435,540.597,538.642,0.0
52560.0,STARLINK-3956,PAYLOAD,2024-03-27 16:48:13,15.08857917,0.0001953,53.2161,75.362,88.1608,271.9608,0.00046508,7.125e-05,0.0,0 STARLINK-3956,1 52560U 22051AD  24087.70015885  .00007125  00000-0  46508-3 0  9994,2 52560  53.2161  75.3620 0001953  88.1608 271.9608 15.08857917104166,6917.826,95.436,541.042,538.34,0.0
52560.0,STARLINK-3956,PAYLOAD,2024-03-28 05:31:18,15.08849493,0.0001637,53.2171,72.9832,99.4355,260.6823,7.1007e-05,8.42e-06,0.0,0 STARLINK-3956,1 52560U 22051AD  24088.23007590  .00000842  00000-0  71007-4 0  9999,2 52560  53.2171  72.9832 0001637  99.4355 260.6823 15.08849493104241,6917.851,95.437,540.849,538.584,0.0
52560.0,STARLINK-3956,PAYLOAD,2024-03-28 08:42:04,15.08847505,0.000163,53.2174,72.3877,103.3515,256.7659,0.00010508,1.385e-05,0.0,0 STARLINK-3956,1 52560U 22051AD  24088.36255566  .00001385  00000-0  10508-3 0  9992,2 52560  53.2174  72.3877 0001630 103.3515 256.7659 15.08847505104192,6917.857,95.437,540.85,538.595,0.0
52560.0,STARLINK-3956,PAYLOAD,2024-03-28 23:00:33,15.08834265,0.0001624,53.2164,69.7097,105.3384,254.7787,-7.4254e-05,-1.469e-05,0.0,0 STARLINK-3956,1 52560U 22051AD  24088.95872077 -.00001469  00000-0 -74254-4 0  9993,2 52560  53.2164  69.7097 0001624 105.3384 254.7787 15.08834265104283,6917.898,95.438,540.886,538.639,0.0
52560.0,STARLINK-3956,PAYLOAD,2024-03-29 08:32:50,15.08878805,0.000182,53.2187,67.9235,102.3334,257.7862,0.00066883,0.00010384,0.0,0 STARLINK-3956,1 52560U 22051AD  24089.35614335  .00010384  00000-0  66883-3 0  9991,2 52560  53.2187  67.9235 0001820 102.3334 257.7862 15.08878805104412,6917.762,95.435,540.886,538.368,0.0
52560.0,STARLINK-3956,PAYLOAD,2024-03-30 05:12:53,15.08832792,0.0001519,53.2171,64.0605,82.1179,277.9985,-6.3481e-05,-1.298e-05,0.0,0 STARLINK-3956,1 52560U 22051AD  24090.21728011 -.00001298  00000-0 -63481-4 0  9993,2 52560  53.2171  64.0605 0001519  82.1179 277.9985 15.08832792104540,6917.902,95.438,540.818,538.717,0.0
52560.0,STARLINK-3956,PAYLOAD,2024-03-30 08:23:39,15.08832302,0.0001588,53.2177,63.4682,89.3419,270.7755,-1.2073e-05,-4.8e-06,0.0,0 STARLINK-3956,1 52560U 22051AD  24090.34976281 -.00000480  00000-0 -12073-4 0  9994,2 52560  53.2177  63.4682 0001588  89.3419 270.7755 15.08832302104493,6917.904,95.438,540.867,538.67,0.0
52560.0,STARLINK-3956,PAYLOAD,2024-03-31 05:03:39,15.08848674,0.0001642,53.2177,59.6035,90.1655,269.9525,3.4206e-05,2.56e-06,0.0,0 STARLINK-3956,1 52560U 22051AD  24091.21087695  .00000256  00000-0  34206-4 0  9994,2 52560  53.2177  59.6035 0001642  90.1655 269.9525 15.08848674104691,6917.854,95.437,540.855,538.583,0.0
52560.0,STARLINK-3956,PAYLOAD,2024-03-31 14:35:58,15.08846587,0.0001638,53.2179,57.8203,94.2005,265.9175,-7.7391e-05,-1.52e-05,0.0,0 STARLINK-3956,1 52560U 22051AD  24091.60831580 -.00001520  00000-0 -77391-4 0  9996,2 52560  53.2179  57.8203 0001638  94.2005 265.9175 15.08846587104686,6917.86,95.437,540.858,538.592,0.0
52560.0,STARLINK-3956,PAYLOAD,2024-04-01 03:19:04,15.08840242,0.0001651,53.2182,55.4418,90.0065,270.1116,0.00020197,2.928e-05,0.0,0 STARLINK-3956,1 52560U 22051AD  24092.13824289  .00002928  00000-0  20197-3 0  9995,2 52560  53.2182  55.4418 0001651  90.0065 270.1116 15.08840242104839,6917.88,95.438,540.887,538.603,0.0
52560.0,STARLINK-3956,PAYLOAD,2024-04-01 14:26:46,15.08841527,0.0001981,53.2177,53.3592,81.9734,278.1482,0.00015141,2.122e-05,0.0,0 STARLINK-3956,1 52560U 22051AD  24092.60192312  .00002122  00000-0  15141-3 0  9991,2 52560  53.2177  53.3592 0001981  81.9734 278.1482 15.08841527104832,6917.876,95.437,541.111,538.37,0.0
